SEMAPHORE-C_L_00009035-01
1 14080U 22339QB  26075.69982639  .00000000  00000+0  00000-0 0  9993
2 14080  33.0000 170.0000 0000000   0.0000   5.6667 14.89338871    12
SEMAPHORE-C_L_00009035-02
1 14081U 26969SR  26075.69982639  .00000000  00000+0  00000-0 0  9997
2 14081  33.0000 170.0000 0000000   0.0000   8.6667 14.89338871    16
SEMAPHORE-C_L_00009035-03
1 14082U 22392ND  26075.69982639  .00000000  00000+0  00000-0 0  9994
2 14082  33.0000 170.0000 0000000   0.0000  11.6667 14.89338871    11
SEMAPHORE-C_L_00009035-04
1 14083U 24433UD  26075.69982639  .00000000  00000+0  00000-0 0  9993
2 14083  33.0000 170.0000 0000000   0.0000  14.6667 14.89338871    15
SEMAPHORE-C_L_00009035-05
1 14084U 22456CY  26075.69982639  .00000000  00000+0  00000-0 0  9997
2 14084  33.0000 170.0000 0000000   0.0000  17.6667 14.89338871    19
SEMAPHORE-C_L_00009035-06
1 14085U 25335FW  26075.69982639  .00000000  00000+0  00000-0 0  9997
2 14085  33.0000 170.0000 0000000   0.0000  20.6667 14.89338871    14
SEMAPHORE-C_L_00009035-07
1 14086U 26220OQ  26075.69982639  .00000000  00000+0  00000-0 0  9992
2 14086  33.0000 170.0000 0000000   0.0000  23.6667 14.89338871    18
SEMAPHORE-C_L_00009035-08
1 14087U 26444IB  26075.69982639  .00000000  00000+0  00000-0 0  9991
2 14087  33.0000 170.0000 0000000   0.0000  26.6667 14.89338871    12
SEMAPHORE-C_L_00009035-09
1 14088U 22590AE  26075.69982639  .00000000  00000+0  00000-0 0  9990
2 14088  33.0000 170.0000 0000000   0.0000  29.6667 14.89338871    16
SEMAPHORE-C_L_00009035-10
1 14089U 24181EZ  26075.69982639  .00000000  00000+0  00000-0 0  9999
2 14089  33.0000 170.0000 0000000   0.0000  32.6667 14.89338871    11
SEMAPHORE-C_L_00009035-11
1 14090U 25837RW  26075.69982639  .00000000  00000+0  00000-0 0  9990
2 14090  33.0000 170.0000 0000000   0.0000  35.6667 14.89338871    16
SEMAPHORE-C_L_00009035-12
1 14091U 22197KF  26075.69982639  .00000000  00000+0  00000-0 0  9997
2 14091  33.0000 170.0000 0000000   0.0000  38.6667 14.89338871    10
SEMAPHORE-C_L_00009035-13
1 14092U 23990NL  26075.69982639  .00000000  00000+0  00000-0 0  9990
2 14092  33.0000 170.0000 0000000   0.0000  41.6667 14.89338871    15
SEMAPHORE-C_L_00009035-14
1 14093U 22239DA  26075.69982639  .00000000  00000+0  00000-0 0  9996
2 14093  33.0000 170.0000 0000000   0.0000  44.6667 14.89338871    19
SEMAPHORE-C_L_00009035-15
1 14094U 26481ML  26075.69982639  .00000000  00000+0  00000-0 0  9990
2 14094  33.0000 170.0000 0000000   0.0000  47.6667 14.89338871    13
SEMAPHORE-C_L_00009035-16
1 14095U 25159FI  26075.69982639  .00000000  00000+0  00000-0 0  9992
2 14095  33.0000 170.0000 0000000   0.0000  50.6667 14.89338871    18
SEMAPHORE-C_L_00009035-17
1 14096U 23092CB  26075.69982639  .00000000  00000+0  00000-0 0  9997
2 14096  33.0000 170.0000 0000000   0.0000  53.6667 14.89338871    12
SEMAPHORE-C_L_00009035-18
1 14097U 24477YZ  26075.69982639  .00000000  00000+0  00000-0 0  9996
2 14097  33.0000 170.0000 0000000   0.0000  56.6667 14.89338871    16
SEMAPHORE-C_L_00009035-19
1 14098U 25719CP  26075.69982639  .00000000  00000+0  00000-0 0  9997
2 14098  33.0000 170.0000 0000000   0.0000  59.6667 14.89338871    10
SEMAPHORE-C_L_00009035-20
1 14099U 25627QJ  26075.69982639  .00000000  00000+0  00000-0 0  9996
2 14099  33.0000 170.0000 0000000   0.0000  62.6667 14.89338871    15
SEMAPHORE-C_L_00009035-21
1 14100U 24040IB  26075.69982639  .00000000  00000+0  00000-0 0  9997
2 14100  33.0000 170.0000 0000000   0.0000  65.6667 14.89338871    11
SEMAPHORE-C_L_00009035-22
1 14101U 25935AF  26075.69982639  .00000000  00000+0  00000-0 0  9992
2 14101  33.0000 170.0000 0000000   0.0000  68.6667 14.89338871    15
SEMAPHORE-C_L_00009035-23
1 14102U 26107ZO  26075.69982639  .00000000  00000+0  00000-0 0  9995
2 14102  33.0000 170.0000 0000000   0.0000  71.6667 14.89338871    10
SEMAPHORE-C_L_00009035-24
1 14103U 26290HX  26075.69982639  .00000000  00000+0  00000-0 0  9999
2 14103  33.0000 170.0000 0000000   0.0000  74.6667 14.89338871    14
SEMAPHORE-C_L_00009035-25
1 14104U 22290KO  26075.69982639  .00000000  00000+0  00000-0 0  9996
2 14104  33.0000 170.0000 0000000   0.0000  77.6667 14.89338871    18
SEMAPHORE-C_L_00009035-26
1 14105U 25516GA  26075.69982639  .00000000  00000+0  00000-0 0  9991
2 14105  33.0000 170.0000 0000000   0.0000  80.6667 14.89338871    13
SEMAPHORE-C_L_00009035-27
1 14106U 23355YD  26075.69982639  .00000000  00000+0  00000-0 0  9991
2 14106  33.0000 170.0000 0000000   0.0000  83.6667 14.89338871    17
SEMAPHORE-C_L_00009035-28
1 14107U 23626XR  26075.69982639  .00000000  00000+0  00000-0 0  9993
2 14107  33.0000 170.0000 0000000   0.0000  86.6667 14.89338871    11
SEMAPHORE-C_L_00009035-29
1 14108U 25833BV  26075.69982639  .00000000  00000+0  00000-0 0  9996
2 14108  33.0000 170.0000 0000000   0.0000  89.6667 14.89338871    15
SEMAPHORE-C_L_00009035-30
1 14109U 23375VQ  26075.69982639  .00000000  00000+0  00000-0 0  9996
2 14109  33.0000 170.0000 0000000   0.0000  92.6667 14.89338871    10
SEMAPHORE-C_L_00009035-31
1 14110U 23373MR  26075.69982639  .00000000  00000+0  00000-0 0  9996
2 14110  33.0000 170.0000 0000000   0.0000  95.6667 14.89338871    15
SEMAPHORE-C_L_00009035-32
1 14111U 26882DM  26075.69982639  .00000000  00000+0  00000-0 0  9995
2 14111  33.0000 170.0000 0000000   0.0000  98.6667 14.89338871    19
SEMAPHORE-C_L_00009035-33
1 14112U 25550OM  26075.69982639  .00000000  00000+0  00000-0 0  9997
2 14112  33.0000 170.0000 0000000   0.0000 101.6667 14.89338871    15
SEMAPHORE-C_L_00009035-34
1 14113U 23121OL  26075.69982639  .00000000  00000+0  00000-0 0  9990
2 14113  33.0000 170.0000 0000000   0.0000 104.6667 14.89338871    19
SEMAPHORE-C_L_00009035-35
1 14114U 22301GN  26075.69982639  .00000000  00000+0  00000-0 0  9990
2 14114  33.0000 170.0000 0000000   0.0000 107.6667 14.89338871    13
SEMAPHORE-C_L_00009035-36
1 14115U 23844CA  26075.69982639  .00000000  00000+0  00000-0 0  9994
2 14115  33.0000 170.0000 0000000   0.0000 110.6667 14.89338871    18
SEMAPHORE-C_L_00009035-37
1 14116U 24826CE  26075.69982639  .00000000  00000+0  00000-0 0  9996
2 14116  33.0000 170.0000 0000000   0.0000 113.6667 14.89338871    12
SEMAPHORE-C_L_00009035-38
1 14117U 24162VL  26075.69982639  .00000000  00000+0  00000-0 0  9990
2 14117  33.0000 170.0000 0000000   0.0000 116.6667 14.89338871    16
SEMAPHORE-C_L_00009035-39
1 14118U 22962WE  26075.69982639  .00000000  00000+0  00000-0 0  9997
2 14118  33.0000 170.0000 0000000   0.0000 119.6667 14.89338871    10
SEMAPHORE-C_L_00009035-40
1 14119U 25140OC  26075.69982639  .00000000  00000+0  00000-0 0  9999
2 14119  33.0000 170.0000 0000000   0.0000 122.6667 14.89338871    15
SEMAPHORE-C_L_00009035-41
1 14120U 26697QW  26075.69982639  .00000000  00000+0  00000-0 0  9999
2 14120  33.0000 170.0000 0000000   0.0000 125.6667 14.89338871    10
SEMAPHORE-C_L_00009035-42
1 14121U 23110MX  26075.69982639  .00000000  00000+0  00000-0 0  9997
2 14121  33.0000 170.0000 0000000   0.0000 128.6667 14.89338871    14
SEMAPHORE-C_L_00009035-43
1 14122U 26935PW  26075.69982639  .00000000  00000+0  00000-0 0  9996
2 14122  33.0000 170.0000 0000000   0.0000 131.6667 14.89338871    19
SEMAPHORE-C_L_00009035-44
1 14123U 22530VQ  26075.69982639  .00000000  00000+0  00000-0 0  9994
2 14123  33.0000 170.0000 0000000   0.0000 134.6667 14.89338871    13
SEMAPHORE-C_L_00009035-45
1 14124U 24946VB  26075.69982639  .00000000  00000+0  00000-0 0  9998
2 14124  33.0000 170.0000 0000000   0.0000 137.6667 14.89338871    17
SEMAPHORE-C_L_00009035-46
1 14125U 26617AA  26075.69982639  .00000000  00000+0  00000-0 0  9996
2 14125  33.0000 170.0000 0000000   0.0000 140.6667 14.89338871    12
SEMAPHORE-C_L_00009035-47
1 14126U 26043NN  26075.69982639  .00000000  00000+0  00000-0 0  9990
2 14126  33.0000 170.0000 0000000   0.0000 143.6667 14.89338871    16
SEMAPHORE-C_L_00009035-48
1 14127U 24245YP  26075.69982639  .00000000  00000+0  00000-0 0  9993
2 14127  33.0000 170.0000 0000000   0.0000 146.6667 14.89338871    10
SEMAPHORE-C_L_00009035-49
1 14128U 25061HM  26075.69982639  .00000000  00000+0  00000-0 0  9991
2 14128  33.0000 170.0000 0000000   0.0000 149.6667 14.89338871    14
SEMAPHORE-C_L_00009035-50
1 14129U 24768NG  26075.69982639  .00000000  00000+0  00000-0 0  9995
2 14129  33.0000 170.0000 0000000   0.0000 152.6667 14.89338871    19
SEMAPHORE-C_L_00009035-51
1 14130U 25881TN  26075.69982639  .00000000  00000+0  00000-0 0  9994
2 14130  33.0000 170.0000 0000000   0.0000 155.6667 14.89338871    14
SEMAPHORE-C_L_00009035-52
1 14131U 22375JI  26075.69982639  .00000000  00000+0  00000-0 0  9990
2 14131  33.0000 170.0000 0000000   0.0000 158.6667 14.89338871    18
SEMAPHORE-C_L_00009035-53
1 14132U 26071NK  26075.69982639  .00000000  00000+0  00000-0 0  9998
2 14132  33.0000 170.0000 0000000   0.0000 161.6667 14.89338871    13
SEMAPHORE-C_L_00009035-54
1 14133U 26962CT  26075.69982639  .00000000  00000+0  00000-0 0  9998
2 14133  33.0000 170.0000 0000000   0.0000 164.6667 14.89338871    17
SEMAPHORE-C_L_00009035-55
1 14134U 26180DQ  26075.69982639  .00000000  00000+0  00000-0 0  9991
2 14134  33.0000 170.0000 0000000   0.0000 167.6667 14.89338871    11
SEMAPHORE-C_L_00009035-56
1 14135U 26494ZK  26075.69982639  .00000000  00000+0  00000-0 0  9990
2 14135  33.0000 170.0000 0000000   0.0000 170.6667 14.89338871    16
SEMAPHORE-C_L_00009035-57
1 14136U 24032KI  26075.69982639  .00000000  00000+0  00000-0 0  9997
2 14136  33.0000 170.0000 0000000   0.0000 173.6667 14.89338871    10
SEMAPHORE-C_L_00009035-58
1 14137U 24762N   26075.69982639  .00000000  00000+0  00000-0 0  9998
2 14137  33.0000 170.0000 0000000   0.0000 176.6667 14.89338871    14
SEMAPHORE-C_L_00009035-59
1 14138U 24278MD  26075.69982639  .00000000  00000+0  00000-0 0  9991
2 14138  33.0000 170.0000 0000000   0.0000 179.6667 14.89338871    18
SEMAPHORE-C_L_00009035-60
1 14139U 22994BS  26075.69982639  .00000000  00000+0  00000-0 0  9995
2 14139  33.0000 170.0000 0000000   0.0000 182.6667 14.89338871    13
